[{"OBJECT_NAME":"STARLINK-2741","OBJECT_ID":"2021-044AY","EPOCH":"2026-03-09T10:45:00.319104","MEAN_MOTION":15.30197658,"ECCENTRICITY":0.00012471,"INCLINATION":53.1596,"RA_OF_ASC_NODE":79.049,"ARG_OF_PERICENTER":97.7321,"MEAN_ANOMALY":262.3821,"EPHEMERIS_TYPE":0,"CLASSIFICATION_TYPE":"U","NORAD_CAT_ID":48684,"ELEMENT_SET_NO":999,"REV_AT_EPOCH":26429,"BSTAR":1.7768774e-5,"MEAN_MOTION_DOT":1.67e-6,"MEAN_MOTION_DDOT":0},{"OBJECT_NAME":"YAOGAN-43 01G","OBJECT_ID":"2024-148G","EPOCH":"2026-03-09T10:38:37.087584","MEAN_MOTION":15.28332833,"ECCENTRICITY":0.00073829,"INCLINATION":35.0006,"RA_OF_ASC_NODE":62.0013,"ARG_OF_PERICENTER":306.3543,"MEAN_ANOMALY":53.6492,"EPHEMERIS_TYPE":0,"CLASSIFICATION_TYPE":"U","NORAD_CAT_ID":60464,"ELEMENT_SET_NO":999,"REV_AT_EPOCH":8700,"BSTAR":0.00035872736,"MEAN_MOTION_DOT":0.00010133,"MEAN_MOTION_DDOT":0}]
